NORAD_CAT_ID,OBJECT_NAME,OBJECT_TYPE,EPOCH,MEAN_MOTION,ECCENTRICITY,INCLINATION,RA_OF_ASC_NODE,ARG_OF_PERICENTER,MEAN_ANOMALY,BSTAR,MEAN_MOTION_DOT,MEAN_MOTION_DDOT,TLE_LINE0,TLE_LINE1,TLE_LINE2,SEMIMAJOR_AXIS,PERIOD,APOGEE,PERIGEE,DECAYED
53421.0,STARLINK-4545,PAYLOAD,2023-01-28 09:33:07,15.08839844,0.0001024,53.2188,175.1347,83.1022,277.0087,3.0949e-05,2.05e-06,0.0,0 STARLINK-4545,1 53421U 22097AK  23028.39799806  .00000205  00000-0  30949-4 0  9997,2 53421  53.2188 175.1347 0001024  83.1022 277.0087 15.08839844 27083,6917.881,95.438,540.454,539.037,0.0
53421.0,STARLINK-4545,PAYLOAD,2023-01-28 19:05:25,15.08840121,0.0001025,53.218,173.3504,110.016,250.0942,0.00021288,3.102e-05,0.0,0 STARLINK-4545,1 53421U 22097AK  23028.79543055  .00003102  00000-0  21288-3 0  9998,2 53421  53.2180 173.3504 0001025 110.0160 250.0942 15.08840121 26680,6917.88,95.438,540.454,539.036,0.0
53421.0,STARLINK-4545,PAYLOAD,2023-01-29 12:34:40,15.08832937,0.000125,53.2181,170.0798,93.5874,266.5261,8.8018e-06,-1.48e-06,0.0,0 STARLINK-4545,1 53421U 22097AK  23029.52408360 -.00000148  00000-0  88018-5 0  9993,2 53421  53.2181 170.0798 0001250  93.5874 266.5261 15.08832937 26791,6917.902,95.438,540.632,538.902,0.0
53421.0,STARLINK-4545,PAYLOAD,2023-01-29 17:20:50,15.08835331,0.0001189,53.2182,169.1875,97.3563,262.7564,2.3588e-05,8.8e-07,0.0,0 STARLINK-4545,1 53421U 22097AK  23029.72280209  .00000088  00000-0  23588-4 0  9997,2 53421  53.2182 169.1875 0001189  97.3563 262.7564 15.08835331 27285,6917.895,95.438,540.582,538.937,0.0
53421.0,STARLINK-4545,PAYLOAD,2023-01-30 12:25:27,15.0884358,0.0001302,53.218,165.6192,98.0442,262.0698,2.4417e-05,1.01e-06,0.0,0 STARLINK-4545,1 53421U 22097AK  23030.51767783  .00000101  00000-0  24417-4 0  9991,2 53421  53.2180 165.6192 0001302  98.0442 262.0698 15.08843580 26945,6917.869,95.437,540.635,538.834,0.0
53421.0,STARLINK-4545,PAYLOAD,2023-01-31 12:16:14,15.08835647,0.0001197,53.2184,161.1587,107.8792,252.233,9.5934e-05,1.239e-05,0.0,0 STARLINK-4545,1 53421U 22097AK  23031.51128083  .00001239  00000-0  95934-4 0  9991,2 53421  53.2184 161.1587 0001197 107.8792 252.2330 15.08835647 27093,6917.894,95.438,540.587,538.931,0.0
53421.0,STARLINK-4545,PAYLOAD,2023-01-31 17:02:23,15.08842739,0.0001176,53.2184,160.2659,112.1844,247.9273,0.00011312,1.513e-05,0.0,0 STARLINK-4545,1 53421U 22097AK  23031.70999584  .00001513  00000-0  11312-3 0  9996,2 53421  53.2184 160.2659 0001176 112.1844 247.9273 15.08842739 27588,6917.872,95.437,540.551,538.923,0.0
53421.0,STARLINK-4545,PAYLOAD,2023-02-01 12:07:01,15.08839355,0.0001392,53.2186,156.6989,99.1663,260.9487,2.1492e-06,-2.54e-06,0.0,0 STARLINK-4545,1 53421U 22097AK  23032.50488246 -.00000254  00000-0  21492-5 0  9997,2 53421  53.2186 156.6989 0001392  99.1663 260.9487 15.08839355 27704,6917.882,95.438,540.71,538.784,0.0
53421.0,STARLINK-4545,PAYLOAD,2023-02-01 16:53:11,15.08839905,0.0001453,53.218,155.8067,93.1265,266.9893,9.2844e-06,-1.4e-06,0.0,0 STARLINK-4545,1 53421U 22097AK  23032.70360218 -.00000140  00000-0  92844-5 0  9990,2 53421  53.2180 155.8067 0001453  93.1265 266.9893 15.08839905 27276,6917.881,95.438,540.751,538.741,0.0
53421.0,STARLINK-4545,PAYLOAD,2023-02-02 11:57:49,15.0883566,0.0001399,53.2167,152.2395,93.5883,266.5269,7.4664e-07,-2.76e-06,0.0,0 STARLINK-4545,1 53421U 22097AK  23033.49848737 -.00000276  00000-0  74664-6 0  9995,2 53421  53.2167 152.2395 0001399  93.5883 266.5269 15.08835660 27856,6917.894,95.438,540.726,538.791,0.0
53421.0,STARLINK-4545,PAYLOAD,2023-02-03 08:37:50,15.08830433,0.0001291,53.2181,148.3738,89.4402,270.6738,4.6861e-05,4.58e-06,0.0,0 STARLINK-4545,1 53421U 22097AK  23034.35961152  .00000458  00000-0  46861-4 0  9995,2 53421  53.2181 148.3738 0001291  89.4402 270.6738 15.08830433 27985,6917.91,95.438,540.668,538.882,0.0
53421.0,STARLINK-4545,PAYLOAD,2023-02-03 16:34:45,15.08833857,0.0001353,53.2174,146.8876,87.0974,273.0173,0.00011268,1.506e-05,0.0,0 STARLINK-4545,1 53421U 22097AK  23034.69080859  .00001506  00000-0  11268-3 0  9995,2 53421  53.2174 146.8876 0001353  87.0974 273.0173 15.08833857 27578,6917.899,95.438,540.7,538.828,0.0
53421.0,STARLINK-4545,PAYLOAD,2023-02-04 13:14:46,15.08841058,0.0001494,53.2186,143.0226,84.6562,275.4601,9.4891e-05,1.223e-05,0.0,0 STARLINK-4545,1 53421U 22097AK  23035.55192703  .00001223  00000-0  94891-4 0  9993,2 53421  53.2186 143.0226 0001494  84.6562 275.4601 15.08841058 28161,6917.877,95.437,540.776,538.709,0.0
53421.0,STARLINK-4545,PAYLOAD,2023-02-04 16:25:32,15.08847928,0.0001425,53.2191,142.4272,78.3088,281.8064,0.00013233,1.819e-05,0.0,0 STARLINK-4545,1 53421U 22097AK  23035.68440150  .00001819  00000-0  13233-3 0  9990,2 53421  53.2191 142.4272 0001425  78.3088 281.8064 15.08847928 27725,6917.856,95.437,540.707,538.735,0.0
53421.0,STARLINK-4545,PAYLOAD,2023-02-05 00:22:28,15.08839635,0.0001237,53.2189,140.9399,89.843,270.2704,6.1531e-05,6.92e-06,0.0,0 STARLINK-4545,1 53421U 22097AK  23036.01560745  .00000692  00000-0  61531-4 0  9994,2 53421  53.2189 140.9399 0001237  89.8430 270.2704 15.08839635 27778,6917.882,95.438,540.602,538.891,0.0
53421.0,STARLINK-4545,PAYLOAD,2023-02-05 13:05:33,15.08839967,0.0001245,53.2173,138.5597,102.9667,257.1464,1.3328e-05,-7.6e-07,0.0,0 STARLINK-4545,1 53421U 22097AK  23036.54552959 -.00000076  00000-0  13328-4 0  9998,2 53421  53.2173 138.5597 0001245 102.9667 257.1464 15.08839967 28318,6917.88,95.438,540.607,538.884,0.0
53421.0,STARLINK-4545,PAYLOAD,2023-02-05 16:16:19,15.08843668,0.0001246,53.2175,137.9651,103.0749,257.0382,4.272e-05,3.92e-06,0.0,0 STARLINK-4545,1 53421U 22097AK  23036.67800630  .00000392  00000-0  42720-4 0  9992,2 53421  53.2175 137.9651 0001246 103.0749 257.0382 15.08843668 28331,6917.869,95.437,540.596,538.872,0.0
53421.0,STARLINK-4545,PAYLOAD,2023-02-06 11:20:57,15.08845838,0.0001298,53.2179,134.3989,84.019,276.095,7.3105e-05,8.76e-06,0.0,0 STARLINK-4545,1 53421U 22097AK  23037.47288503  .00000876  00000-0  73105-4 0  9998,2 53421  53.2179 134.3989 0001298  84.0190 276.0950 15.08845838 27999,6917.863,95.437,540.625,538.83,0.0
53421.0,STARLINK-4545,PAYLOAD,2023-02-06 12:56:20,15.08849393,0.000112,53.2188,134.1009,85.7698,274.3423,2.8052e-05,1.59e-06,0.0,0 STARLINK-4545,1 53421U 22097AK  23037.53912339  .00000159  00000-0  28052-4 0  9991,2 53421  53.2188 134.1009 0001120  85.7698 274.3423 15.08849393 28464,6917.852,95.437,540.491,538.942,0.0
53421.0,STARLINK-4545,PAYLOAD,2023-02-06 16:07:05,15.08858864,0.0001258,53.217,133.5045,103.0616,257.0517,0.0001181,1.593e-05,0.0,0 STARLINK-4545,1 53421U 22097AK  23037.67159311  .00001593  00000-0  11810-3 0  9995,2 53421  53.2170 133.5045 0001258 103.0616 257.0517 15.08858864 28021,6917.823,95.436,540.558,538.817,0.0
53421.0,STARLINK-4545,PAYLOAD,2023-02-07 06:25:34,15.08848769,0.0001891,53.2178,130.8315,69.3523,290.7672,0.00015918,2.247e-05,0.0,0 STARLINK-4545,1 53421U 22097AK  23038.26775806  .00002247  00000-0  15918-3 0  9994,2 53421  53.2178 130.8315 0001891  69.3523 290.7672 15.08848769 28112,6917.854,95.437,541.027,538.41,0.0
53421.0,STARLINK-4545,PAYLOAD,2023-02-07 11:11:43,15.08853673,0.0001325,53.2176,129.9386,88.63,271.4844,0.00019152,2.763e-05,0.0,0 STARLINK-4545,1 53421U 22097AK  23038.46647172  .00002763  00000-0  19152-3 0  9997,2 53421  53.2176 129.9386 0001325  88.6300 271.4844 15.08853673 28607,6917.839,95.437,540.62,538.787,0.0
53421.0,STARLINK-4545,PAYLOAD,2023-02-07 17:33:14,15.08870756,0.0001212,53.2174,128.7474,85.004,275.1091,0.00026243,3.895e-05,0.0,0 STARLINK-4545,1 53421U 22097AK  23038.73141611  .00003895  00000-0  26243-3 0  9990,2 53421  53.2174 128.7474 0001212  85.0040 275.1091 15.08870756 28186,6917.786,95.436,540.49,538.813,0.0
53421.0,STARLINK-4545,PAYLOAD,2023-02-08 06:16:17,15.08889817,0.000123,53.2168,126.3687,98.1532,261.96,0.00037885,5.755e-05,0.0,0 STARLINK-4545,1 53421U 22097AK  23039.26131289  .00005755  00000-0  37885-3 0  9990,2 53421  53.2168 126.3687 0001230  98.1532 261.9600 15.08889817 28266,6917.728,95.434,540.444,538.742,0.0
53421.0,STARLINK-4545,PAYLOAD,2023-02-08 11:02:27,15.08894212,0.0001176,53.2169,125.4799,60.929,299.182,0.00053928,8.318e-05,0.0,0 STARLINK-4545,1 53421U 22097AK  23039.46003851  .00008318  00000-0  53928-3 0  9999,2 53421  53.2169 125.4799 0001176  60.9290 299.1820 15.08894212 28293,6917.715,95.434,540.393,538.766,0.0
53421.0,STARLINK-4545,PAYLOAD,2023-02-08 15:48:35,15.08904712,0.0001256,53.2168,124.5866,92.2713,267.8423,0.0005775,8.931e-05,0.0,0 STARLINK-4545,1 53421U 22097AK  23039.65874449  .00008931  00000-0  57750-3 0  9997,2 53421  53.2168 124.5866 0001256  92.2713 267.8423 15.08904712 28326,6917.683,95.433,540.416,538.679,0.0
53421.0,STARLINK-4545,PAYLOAD,2023-02-09 06:06:59,15.08941908,0.0001081,53.2149,121.9024,66.9698,293.1408,0.00085334,0.00013357,0.0,0 STARLINK-4545,1 53421U 22097AK  23040.25485797  .00013357  00000-0  85334-3 0  9996,2 53421  53.2149 121.9024 0001081  66.9698 293.1408 15.08941908 28411,6917.569,95.431,540.182,538.686,0.0
53421.0,STARLINK-4545,PAYLOAD,2023-02-09 10:53:07,15.0897552,0.0001677,53.2183,121.0191,92.4064,267.712,0.0012963,0.0002048,0.0,0 STARLINK-4545,1 53421U 22097AK  23040.45355805  .00020480  00000-0  12963-2 0  9996,2 53421  53.2183 121.0191 0001677  92.4064 267.7120 15.08975520 28906,6917.466,95.429,540.491,538.171,0.0
53421.0,STARLINK-4545,PAYLOAD,2023-02-09 22:00:44,15.09033494,0.0001541,53.2178,118.937,91.1461,268.9708,0.002083,0.00033196,0.0,0 STARLINK-4545,1 53421U 22097AK  23040.91717980  .00033196  00000-0  20830-2 0  9993,2 53421  53.2178 118.9370 0001541  91.1461 268.9708 15.09033494 28519,6917.289,95.425,540.22,538.088,0.0
53421.0,STARLINK-4545,PAYLOAD,2023-02-10 15:29:48,15.09131393,0.0001315,53.2154,115.6631,77.8904,282.2236,0.0033013,0.00053071,0.0,0 STARLINK-4545,1 53421U 22097AK  23041.64569511  .00053071  00000-0  33013-2 0  9990,2 53421  53.2154 115.6631 0001315  77.8904 282.2236 15.09131393 28623,6916.99,95.419,539.764,537.945,0.0
